[{"name":"aeroway","match":{"geometry":["point","vertex","line","area"],"tags":{"aeroway":"*"}},"fields":["aeroway"]},{"name":"airport","match":{"geometry":["point","area"],"terms":["airplane","airport","aerodrome"],"tags":{"aeroway":"aerodrome"}},"icon":"airport","fields":[]},{"name":"helipad","match":{"geometry":["point","area"],"terms":["helicopter","helipad","heliport"],"tags":{"aeroway":"helipad"}},"icon":"heliport","fields":[]},{"name":"amenity","match":{"geometry":["point","area"],"tags":{"amenity":"*"}},"fields":["amenity"]},{"name":"bank","match":{"geometry":["point","area"],"terms":["coffer","countinghouse","credit union","depository","exchequer","fund","hoard","investment firm","repository","reserve","reservoir","safe","savings","stock","stockpile","store","storehouse","thrift","treasury","trust company","vault"],"tags":{"amenity":"bank"}},"icon":"bank","fields":["atm","building_area","address"]},{"name":"bar","match":{"geometry":["point","area"],"tags":{"amenity":"bar"},"terms":[]},"icon":"bar","fields":["building_area","address"]},{"name":"bicycle parking","match":{"geometry":["point","area"],"tags":{"amenity":"bicycle_parking"}},"icon":"bicycle","fields":["bicycle_parking","capacity","operator"]},{"name":"bicycle rental","match":{"geometry":["point","area"],"tags":{"amenity":"bicycle_rental"}},"icon":"bicycle","fields":["capacity","network","operator"]},{"name":"cafe","match":{"geometry":["point","area"],"terms":["coffee","tea","coffee shop"],"tags":{"amenity":"cafe"}},"icon":"cafe","fields":["cuisine","internet_access","building_area","address"]},{"name":"cinema","match":{"geometry":["point","area"],"terms":["big screen","bijou","cine","drive-in","film","flicks","motion pictures","movie house","movie theater","moving pictures","nabes","photoplay","picture show","pictures","playhouse","show","silver screen"],"tags":{"amenity":"cinema"}},"icon":"cinema","fields":["building_area","address"]},{"name":"fast food","match":{"geometry":["point","area"],"tags":{"amenity":"fast_food"},"terms":[]},"icon":"fast-food","fields":["cuisine","building_area","address"]},{"name":"fire station","match":{"geometry":["point","area"],"tags":{"amenity":"fire_station"},"terms":[]},"icon":"fire-station","fields":["operator","building_area","address"]},{"name":"grave yard","match":{"geometry":["point","area"],"tags":{"amenity":"grave_yard"}},"icon":"cemetery","fields":["religion"]},{"name":"hospital","match":{"geometry":["point","area"],"terms":["clinic","emergency room","health service","hospice","infirmary","institution","nursing home","rest home","sanatorium","sanitarium","sick bay","surgery","ward"],"tags":{"amenity":"hospital"}},"icon":"hospital","fields":["emergency","building_area","address"]},{"name":"library","match":{"geometry":["point","area"],"tags":{"amenity":"library"},"terms":[]},"icon":"library","fields":["operator","building_area","address"]},{"name":"parking","match":{"geometry":["point","area"],"tags":{"amenity":"parking"},"terms":[]},"icon":"parking","fields":["fee","access","address"]},{"name":"pharmacy","match":{"geometry":["point","area"],"tags":{"amenity":"pharmacy"},"terms":[]},"icon":"pharmacy","fields":["operator","building_area","address"]},{"name":"place of worship","match":{"geometry":["point","area"],"terms":["abbey","basilica","bethel","cathedral","chancel","chantry","chapel","church","fold","house of God","house of prayer","house of worship","minster","mission","mosque","oratory","parish","sacellum","sanctuary","shrine","synagogue","tabernacle","temple"],"tags":{"amenity":"place_of_worship"}},"icon":"place-of-worship","fields":["religion","denomination","building","address"]},{"name":"church","match":{"geometry":["point","area"],"terms":["christian","abbey","basilica","bethel","cathedral","chancel","chantry","chapel","church","fold","house of God","house of prayer","house of worship","minster","mission","oratory","parish","sacellum","sanctuary","shrine","tabernacle","temple"],"tags":{"amenity":"place_of_worship","religion":"christian"}},"icon":"religious-christian","fields":["denomination","building","address"]},{"name":"synagogue","match":{"geometry":["point","area"],"terms":["jewish","synagogue"],"tags":{"amenity":"place_of_worship","religion":"jewish"}},"icon":"religious-jewish","fields":["denomination","building","address"]},{"name":"mosque","match":{"geometry":["point","area"],"terms":["muslim","mosque"],"tags":{"amenity":"place_of_worship","religion":"muslim"}},"icon":"religious-muslim","fields":["denomination","building","address"]},{"name":"police","match":{"geometry":["point","area"],"terms":["badge","bear","blue","bluecoat","bobby","boy scout","bull","constable","constabulary","cop","copper","corps","county mounty","detective","fed","flatfoot","force","fuzz","gendarme","gumshoe","heat","law","law enforcement","man","narc","officers","patrolman","police"],"tags":{"amenity":"police"}},"icon":"police","fields":["operator","building_area","address"]},{"name":"post box","match":{"geometry":["point"],"tags":{"amenity":"post_box"},"terms":["letter drop","letterbox","mail drop","mailbox","pillar box","postbox"]},"icon":"post","fields":["operator","collection_times"]},{"name":"pub","match":{"geometry":["point","area"],"tags":{"amenity":"pub"},"terms":[]},"icon":"beer","fields":["building_area","address"]},{"name":"restaurant","match":{"geometry":["point","area"],"terms":["bar","cafeteria","caf√©","canteen","chophouse","coffee shop","diner","dining room","dive*","doughtnut shop","drive-in","eatery","eating house","eating place","fast-food place","greasy spoon","grill","hamburger stand","hashery","hideaway","hotdog stand","inn","joint*","luncheonette","lunchroom","night club","outlet*","pizzeria","saloon","soda fountain","watering hole"],"tags":{"amenity":"restaurant"}},"icon":"restaurant","fields":["cuisine","building_area","address"]},{"name":"school","match":{"geometry":["point","area"],"terms":["academy","alma mater","blackboard","college","department","discipline","establishment","faculty","hall","halls of ivy","institute","institution","jail*","schoolhouse","seminary","university"],"tags":{"amenity":"school"}},"icon":"school","fields":["operator","building","address"]},{"name":"toilets","match":{"geometry":["point","area"],"terms":[],"tags":{"amenity":"toilets"}},"fields":["operator","building"]},{"name":"town hall","match":{"geometry":["point","areea"],"terms":["village hall","city government","courthouse","municipal building","municipal center"],"tags":{"amenity":"townhall"}},"icon":"town-hall","fields":["building_area","address"]},{"name":"university","match":{"geometry":["point","area"],"tags":{"amenity":"university"},"terms":[]},"icon":"college","fields":["operator","address"]},{"name":"building","match":{"geometry":["area"],"tags":{"building":"*"},"terms":[]},"icon":"warehouse","fields":["building_yes","levels"],"additional":["address","telephone","website","wikipedia","elevation","source"]},{"name":"highway","match":{"geometry":["point","vertex","line","area"],"tags":{"highway":"*"}},"fields":["highway"]},{"name":"bus stop","match":{"geometry":["point"],"tags":{"highway":"bus_stop"},"terms":[]},"icon":"bus","fields":["operator","shelter"]},{"name":"crossing","match":{"geometry":["vertex"],"tags":{"highway":"crossing"},"terms":["crosswalk","zebra crossing"]},"fields":["crossing"]},{"name":"cycle path","match":{"geometry":["line"],"tags":{"highway":"cycleway"},"terms":[]},"icon":"highway-cycleway","fields":["oneway","roadtype","access","surface"]},{"name":"foot path","match":{"geometry":["line"],"terms":["beaten path","boulevard","clearing","course","cut*","drag*","footpath","highway","lane","line","orbit","passage","pathway","rail","rails","road","roadway","route","street","thoroughfare","trackway","trail","trajectory","walk"],"tags":{"highway":"footway"}},"icon":"highway-footway","fields":["access","surface"]},{"name":"motorway","match":{"geometry":["line"],"tags":{"highway":"motorway"},"terms":[]},"icon":"highway-motorway","fields":["oneway","roadtype","access","maxspeed","surface"]},{"name":"path","match":{"geometry":["line"],"tags":{"highway":"path"},"terms":[]},"icon":"highway-footway","fields":["oneway","roadtype","access","maxspeed","surface"]},{"name":"primary road","match":{"geometry":["line"],"tags":{"highway":"primary"},"terms":[]},"icon":"highway-primary","fields":["oneway","roadtype","access","maxspeed","surface"]},{"name":"residential road","match":{"geometry":["line"],"tags":{"highway":"residential"},"terms":[]},"icon":"highway-residential","fields":["oneway","roadtype","access","maxspeed","surface"]},{"name":"secondary road","match":{"geometry":["line"],"tags":{"highway":"secondary"},"terms":[]},"icon":"highway-secondary","fields":["oneway","roadtype","access","maxspeed","surface"]},{"name":"service road","match":{"geometry":["line"],"tags":{"highway":"service"},"terms":[]},"icon":"highway-service","fields":["service","oneway","roadtype","access","maxspeed","surface"]},{"name":"steps","match":{"geometry":["line"],"tags":{"highway":"steps"},"terms":["stairs","staircase"]},"fields":["access","surface"]},{"name":"tertiary road","match":{"geometry":["line"],"tags":{"highway":"tertiary"},"terms":[]},"icon":"highway-tertiary","fields":["oneway","roadtype","access","maxspeed","surface"]},{"name":"track","match":{"geometry":["line"],"tags":{"highway":"track"},"terms":[]},"icon":"highway-track","fields":["oneway","roadtype","access","maxspeed","surface"]},{"name":"trunk highway","match":{"geometry":["line"],"tags":{"highway":"trunk"},"terms":[]},"icon":"highway-trunk","fields":["oneway","roadtype","access","maxspeed","surface"]},{"name":"turning circle","match":{"geometry":["vertex"],"tags":{"highway":"turning_circle"},"terms":[]},"icon":"circle"},{"name":"unclassified","match":{"geometry":["line"],"tags":{"highway":"unclassified"},"terms":[]},"icon":"highway","fields":["oneway","roadtype","access","maxspeed","surface"]},{"name":"historic","match":{"geometry":["point","area"],"tags":{"historic":"*"}},"fields":["historic"]},{"name":"monument","match":{"geometry":["point","area"],"tags":{"historic":"monument"}},"icon":"monument"},{"name":"landuse","match":{"geometry":["point","area"],"tags":{"landuse":"*"}},"fields":["landuse"]},{"name":"allotments","match":{"geometry":["point","area"],"tags":{"landuse":"allotments"},"terms":[]},"fields":[]},{"name":"cemetery","match":{"geometry":["point","area"],"tags":{"landuse":"cemetery"},"terms":[]},"fields":[],"icon":"cemetery"},{"name":"commercial","match":{"geometry":["point","area"],"tags":{"landuse":"commercial"},"terms":[]},"fields":[]},{"name":"construction","match":{"geometry":["point","area"],"tags":{"landuse":"construction"},"terms":[]},"fields":["construction","operator"]},{"name":"farm","match":{"geometry":["point","area"],"tags":{"landuse":"farm"},"terms":[]},"fields":[]},{"name":"farmyard","match":{"geometry":["point","area"],"tags":{"landuse":"farmyard"},"terms":[]},"fields":[]},{"name":"forest","match":{"geometry":["point","area"],"tags":{"landuse":"forest"},"terms":[]},"fields":["wood"],"icon":"park2"},{"name":"grass","match":{"geometry":["point","area"],"tags":{"landuse":"grass"},"terms":[]},"fields":[]},{"name":"industrial","match":{"geometry":["point","area"],"tags":{"landuse":"industrial"},"terms":[]},"fields":[]},{"name":"meadow","match":{"geometry":["point","area"],"tags":{"landuse":"meadow"},"terms":[]},"fields":[]},{"name":"orchard","match":{"geometry":["point","area"],"tags":{"landuse":"orchard"},"terms":[]},"fields":[]},{"name":"quarry","match":{"geometry":["point","area"],"tags":{"landuse":"quarry"},"terms":[]},"fields":[]},{"name":"residential","match":{"geometry":["point","area"],"tags":{"landuse":"residential"},"terms":[]},"fields":[]},{"name":"vineyard","match":{"geometry":["point","area"],"tags":{"landuse":"vineyard"},"terms":[]},"fields":[]},{"name":"leisure","match":{"geometry":["point","area"],"tags":{"leisure":"*"}},"fields":["leisure"]},{"name":"golf course","match":{"geometry":["point","area"],"tags":{"leisure":"golf_course"},"terms":[]},"icon":"golf","fields":["operator","address"]},{"name":"park","match":{"geometry":["point","area"],"terms":["esplanade","estate","forest","garden","grass","green","grounds","lawn","lot","meadow","parkland","place","playground","plaza","pleasure garden","recreation area","square","tract","village green","woodland"],"tags":{"leisure":"park"}},"icon":"park"},{"name":"sport pitch","match":{"geometry":["point","area"],"tags":{"leisure":"pitch"},"terms":[]},"icon":"pitch","fields":["sport","surface"]},{"name":"baseball diamond","match":{"geometry":["point","area"],"tags":{"leisure":"pitch","sport":"baseball"},"terms":[]},"icon":"baseball"},{"name":"basketball court","match":{"geometry":["point","area"],"tags":{"leisure":"pitch","sport":"basketball"},"terms":[]},"icon":"basketball","fields":["surface"]},{"name":"soccer field","match":{"geometry":["point","area"],"tags":{"leisure":"pitch","sport":"soccer"},"terms":[]},"icon":"soccer","fields":["surface"]},{"name":"tennis court","match":{"geometry":["point","area"],"tags":{"leisure":"pitch","sport":"tennis"},"terms":[]},"icon":"tennis","fields":["surface"]},{"name":"playground","match":{"geometry":["point","area"],"tags":{"leisure":"playground"}}},{"name":"man made","match":{"geometry":["point","vertex","line","area"],"tags":{"man_made":"*"}},"fields":["man_made"]},{"name":"lighthouse","match":{"geometry":["point","area"],"tags":{"man_made":"lighthouse"}}},{"name":"pier","match":{"geometry":["line","area"],"tags":{"man_made":"pier"}}},{"name":"natural","match":{"geometry":["point","area"],"tags":{"natural":"*"}},"fields":["natural"]},{"name":"bay","match":{"geometry":["point","area"],"terms":[],"tags":{"natural":"bay"}}},{"name":"beach","match":{"geometry":["point","area"],"terms":[],"tags":{"natural":"beach"}},"fields":["surface"]},{"name":"cliff","match":{"geometry":["point","vertex","line","area"],"terms":[],"tags":{"natural":"cliff"}}},{"name":"coastline","match":{"geometry":["line"],"terms":["shore"],"tags":{"natural":"coastline"}}},{"name":"glacier","match":{"geometry":["area"],"terms":[],"tags":{"natural":"glacier"}}},{"name":"grassland","match":{"geometry":["point","area"],"terms":[],"tags":{"natural":"grassland"}}},{"name":"heath","match":{"geometry":["area"],"terms":[],"tags":{"natural":"heath"}}},{"name":"peak","match":{"geometry":["point","vertex"],"tags":{"natural":"peak"},"terms":["acme","aiguille","alp","climax","crest","crown","hill","mount","mountain","pinnacle","summit","tip","top"]},"icon":"triangle","fields":["elevation"]},{"name":"scrub","match":{"geometry":["area"],"tags":{"natural":"scrub"},"terms":[]}},{"name":"spring","match":{"geometry":["point","vertex"],"terms":[],"tags":{"natural":"spring"}}},{"name":"tree","match":{"geometry":["point","vertex"],"terms":[],"tags":{"natural":"tree"}},"fields":["denotation"],"icon":"park"},{"name":"water","match":{"geometry":["area"],"tags":{"natural":"water"},"terms":[]},"fields":["water"]},{"name":"lake","match":{"geometry":["area"],"tags":{"natural":"water","water":"lake"},"terms":["lakelet","loch","mere"]}},{"name":"pond","match":{"geometry":["area"],"tags":{"natural":"water","water":"pond"},"terms":["lakelet","millpond","tarn","pool","mere"]}},{"name":"reservoir","match":{"geometry":["area"],"tags":{"natural":"water","water":"reservoir"},"terms":[]}},{"name":"wetland","match":{"geometry":["point","area"],"tags":{"natural":"wetland"},"terms":[]},"fields":["wetland"]},{"name":"wood","match":{"geometry":["point","area"],"tags":{"natural":"wood"},"terms":[]},"fields":["wood"],"icon":"park2"},{"name":"office","match":{"geometry":["point","area"],"tags":{"office":"*"},"terms":[]},"icon":"commercial","fields":["office","address","opening_hours"]},{"name":"place","match":{"geometry":["point","area"],"tags":{"place":"*"}},"fields":["place"]},{"name":"hamlet","match":{"geometry":["point","area"],"tags":{"place":"hamlet"}},"icon":"triangle-stroked"},{"name":"island","match":{"geometry":["point","area"],"terms":["archipelago","atoll","bar","cay","isle","islet","key","reef"],"tags":{"place":"island"}}},{"name":"locality","match":{"geometry":["point","area"],"tags":{"place":"locality"}},"icon":"marker"},{"name":"village","match":{"geometry":["point","area"],"tags":{"place":"village"}},"icon":"square-stroked"},{"name":"railway","match":{"geometry":["point","vertex","line","area"],"tags":{"railway":"*"}},"fields":["railway"]},{"name":"rail","match":{"geometry":["line"],"tags":{"railway":"rail"},"terms":[]},"icon":"railway-rail"},{"name":"subway","match":{"geometry":["line"],"tags":{"railway":"subway"},"terms":[]},"icon":"railway-rail"},{"name":"subway entrance","match":{"geometry":["point"],"tags":{"railway":"subway_entrance"},"terms":[]},"icon":"rail-underground"},{"name":"shop","match":{"geometry":["point","area"],"tags":{"shop":"*"},"terms":[]},"icon":"shop","fields":["shop","address","opening_hours"]},{"name":"supermarket","match":{"geometry":["point","area"],"terms":["bazaar","boutique","chain","co-op","cut-rate store","discount store","five-and-dime","flea market","galleria","mall","mart","outlet","outlet store","shop","shopping center","shopping plaza","stand","store","supermarket","thrift shop"],"tags":{"shop":"supermarket"}},"icon":"grocery","fields":["operator","building_area","address"]},{"name":"tourism","match":{"geometry":["point","area"],"tags":{"tourism":"*"}},"fields":["tourism"]},{"name":"camp site","match":{"geometry":["point","area"],"terms":[],"tags":{"tourism":"camp_site"}},"icon":"campsite","fields":["operator","address"]},{"name":"hotel","match":{"geometry":["point","area"],"terms":[],"tags":{"tourism":"hotel"}},"icon":"lodging","fields":["operator","building_area","address"]},{"name":"museum","match":{"geometry":["point","area"],"terms":["exhibition","exhibits archive","foundation","gallery","hall","institution","library","menagerie","repository","salon","storehouse","treasury","vault"],"tags":{"tourism":"museum"}},"icon":"museum","fields":["operator","building_area","address"]},{"name":"picnic site","match":{"geometry":["point","area"],"terms":[],"tags":{"tourism":"picnic_site"}},"fields":["operator","building_area","address"]},{"name":"waterway","match":{"geometry":["point","vertex","line","area"],"tags":{"waterway":"*"}},"fields":["waterway"]},{"name":"canal","match":{"geometry":["line"],"tags":{"waterway":"canal"}},"icon":"waterway-river"},{"name":"dam","match":{"geometry":["point","vertex","line","area"],"tags":{"waterway":"dam"}},"icon":"dam"},{"name":"ditch","match":{"geometry":["line"],"tags":{"waterway":"ditch"}},"icon":"waterway-river"},{"name":"drain","match":{"geometry":["line"],"tags":{"waterway":"drain"}},"icon":"waterway-river"},{"name":"river","match":{"geometry":["line"],"terms":["beck","branch","brook","course","creek","estuary","rill","rivulet","run","runnel","stream","tributary","watercourse"],"tags":{"waterway":"river"}},"icon":"waterway-river"},{"name":"riverbank","match":{"geometry":["area"],"tags":{"waterway":"riverbank"}},"icon":"water"},{"name":"stream","match":{"geometry":["line"],"terms":["beck","branch","brook","burn","course","creek","current","drift","flood","flow","freshet","race","rill","rindle","rivulet","run","runnel","rush","spate","spritz","surge","tide","torrent","tributary","watercourse"],"tags":{"waterway":"stream"}},"icon":"waterway-river","fields":["layer"]},{"name":"weir","match":{"geometry":["vertex","line"],"tags":{"waterway":"weir"}},"icon":"dam"}]