{
  "dataDeprecated": [
    {
      "old": {"amenity": "advertising"},
      "replace": {"advertising": "*"}
    },
    {
      "old": {"amenity": "artwork"},
      "replace": {"tourism": "artwork"}
    },
    {
      "old": {"amenity": "car_repair"},
      "replace": {"shop": "car_repair"}
    },
    {
      "old": {"amenity": "citymap_post"},
      "replace": {"tourism": "information"}
    },
    {
      "old": {"amenity": "community_center"},
      "replace": {"amenity": "community_centre"}
    },
    {
      "old": {"amenity": "firepit"},
      "replace": {"leisure": "firepit"}
    },
    {
      "old": {"amenity": "register_office"},
      "replace": {"office": "government", "government": "register_office"}
    },
    {
      "old": {"amenity": "sauna"},
      "replace": {"leisure": "sauna"}
    },
    {
      "old": {"amenity": "scrapyard"},
      "replace": {"landuse": "industrial", "industrial": "scrap_yard"}
    },
    {
      "old": {"amenity": "shop"},
      "replace": {"shop": "*"}
    },
    {
      "old": {"amenity": "swimming_pool"},
      "replace": {"leisure": "swimming_pool"}
    },
    {
      "old": {"amenity": "vending_machine", "vending": "news_papers"},
      "replace": {"amenity": "vending_machine", "vending": "newspapers"}
    },
    {
      "old": {"barrier": "wire_fence"},
      "replace": {"barrier": "fence", "fence_type": "chain"}
    },
    {
      "old": {"barrier": "wood_fence"},
      "replace": {"barrier": "fence", "fence_type": "wood"}
    },
    {
      "old": {"building": "entrance"},
      "replace": {"entrance": "*"}
    },
    {
      "old": {"building:type": "*"},
      "replace": {"building": "$1"}
    },
    {
      "old": {"color": "*"},
      "replace": {"colour": "$1"}
    },
    {
      "old": {"craft": "jeweler"},
      "replace": {"shop": "jewelery"}
    },
    {
      "old": {"craft": "optician"},
      "replace": {"shop": "optician"}
    },
    {
      "old": {"escalator": "*"},
      "replace": {"highway": "steps", "conveying": "$1"}
    },
    {
      "old": {"highway": "ford"},
      "replace": {"ford": "*"}
    },
    {
      "old": {"highway": "stile"},
      "replace": {"barrier": "stile"}
    },
    {
      "old": {"highway": "incline"},
      "replace": {"highway": "road", "incline": "up"}
    },
    {
      "old": {"highway": "incline_steep"},
      "replace": {"highway": "road", "incline": "up"}
    },
    {
      "old": {"highway": "unsurfaced"},
      "replace": {"highway": "road", "incline": "unpaved"}
    },
    {
      "old": {"landuse": "farm"},
      "replace": {"landuse": "farmland"}
    },
    {
      "old": {"landuse": "pond"},
      "replace": {"natural": "water", "water": "pond"}
    },
    {
      "old": {"landuse": "wood"},
      "replace": {"landuse": "forest", "natural": "wood"}
    },
    {
      "old": {"natural": "marsh"},
      "replace": {"natural": "wetland", "wetland": "marsh"}
    },
    {
      "old": {"office": "administrative"},
      "replace": {"office": "government"}
    },
    {
      "old": {"power": "sub_station"},
      "replace": {"power": "substation"}
    },
    {
      "old": {"power_source": "*"},
      "replace": {"generator:source": "$1"}
    },
    {
      "old": {"power_rating": "*"},
      "replace": {"generator:output": "$1"}
    },
    {
      "old": {"shop": "organic"},
      "replace": {"shop": "supermarket", "organic": "only"}
    },
    {
      "old": {"shop": "fishmonger"},
      "replace": {"shop": "seafood"}
    },
    {
      "old": {"shop": "furnace"},
      "replace": {"shop": "fireplace"}
    }
  ]
}
